DMSP 5D-2 F14 (USA 131) 
1 24753U 97012A   19038.64699055 -.00000000  00000-0  23162-4 0  9994
2 24753  99.0314  43.7717 0008948 164.5950 195.5497 14.15820970128308
NOAA 15                 
1 25338U 98030A   19038.61815702  .00000011  00000-0  23333-4 0  9992
2 25338  98.7575  60.0484 0009458 262.9605  97.0499 14.25894067 78562
DMSP 5D-3 F15 (USA 147) 
1 25991U 99067A   19038.66309207 -.00000112  00000-0 -33511-4 0  9994
2 25991  98.9000   3.1742 0010843  72.6014  43.9976 14.16539335990250
METEOSAT-8 (MSG-1)      
1 27509U 02040B   19038.73829987  .00000137  00000-0  00000+0 0  9993
2 27509   5.8679  56.0957 0001402 304.8323  83.8088  1.00268629 60311
DMSP 5D-3 F16 (USA 172) 
1 28054U 03048A   19038.66585416 -.00000114  00000-0 -37010-4 0  9999
2 28054  98.8501  16.1246 0007298 182.6994 296.8483 14.13701023789845
NOAA 18                 
1 28654U 05018A   19038.65333500  .00000032  00000-0  42444-4 0  9992
2 28654  99.1159  83.5376 0014376 182.6814 177.4282 14.12402746707022
METEOSAT-9 (MSG-2)      
1 28912U 05049B   19034.85417480  .00000012  00000-0  00000+0 0  9996
2 28912   3.3910  71.5186 0001308 313.4665  59.7228  1.00277472 48104
HIMAWARI-7 (MTSAT-2)    
1 28937U 06004A   19038.51994003 -.00000246  00000-0  00000-0 0  9994
2 28937   0.0495 225.7485 0003685  88.6354 155.1231  1.00272354 47539
FORMOSAT-3 FM6          
1 29047U 06011A   19038.54419716 -.00000054  00000-0 -50415-5 0  9999
2 29047  71.9787  42.0904 0051342 199.8102 160.1042 14.28664556670494
FORMOSAT-3 FM1          
1 29048U 06011B   19038.75895558  .00000045  00000-0  33903-4 0  9995
2 29048  71.9680 313.1418 0043224 156.1155 204.2000 14.28612416673016
FORMOSAT-3 FM5          
1 29049U 06011C   19038.71828489  .00000080  00000-0  47668-4 0  9993
2 29049  72.0207 122.0676 0035340 188.5057 171.5485 14.28695352668799
FORMOSAT-3 FM3          
1 29050U 06011D   19038.30273866  .00000093  00000-0  30035-4 0  9997
2 29050  72.0173 319.6497 0049029 148.6863 211.7226 14.58761151684072
FORMOSAT-3 FM4          
1 29051U 06011E   19038.51829136  .00000046  00000-0  33748-4 0  9990
2 29051  72.0061  25.4598 0066262  61.5841 299.1953 14.28721729671358
FORMOSAT-3 FM2          
1 29052U 06011F   19038.69243089  .00000043  00000-0  32857-4 0  9994
2 29052  72.0343  97.8353 0039059 148.5467 211.8017 14.28820910669708
GOES 13                 
1 29155U 06018A   19038.78985637 -.00000286  00000-0  00000+0 0  9997
2 29155   0.3672 101.3527 0008210 316.2398 304.3918  1.00264963 46586
METOP-A                 
1 29499U 06044A   19038.84663257 -.00000007  00000-0  16434-4 0  9999
2 29499  98.5946  95.6264 0000645 155.4868 325.8539 14.21541599638474
DMSP 5D-3 F17 (USA 191) 
1 29522U 06050A   19038.66728167 -.00000001  00000-0  22419-4 0  9999
2 29522  98.8278  56.8183 0010826 143.4766 216.7147 14.13999697632673
FENGYUN 3A              
1 32958U 08026A   19038.89469633  .00000028  00000-0  32605-4 0  9992
2 32958  98.3789  46.2346 0009469 342.2299  17.8547 14.19730752554563
FENGYUN 2E              
1 33463U 08066A   19038.60378197 -.00000206  00000-0  00000-0 0  9990
2 33463   3.3368  69.2734 0004472 258.1877 113.8820  1.00278039 37159
NOAA 19                 
1 33591U 09005A   19038.62905672  .00000025  00000-0  38696-4 0  9996
2 33591  99.1697  26.6508 0014465  29.6406 330.5582 14.12333142515414
GOES 14                 
1 35491U 09033A   19038.63745507 -.00000096  00000-0  00000+0 0  9990
2 35491   0.0048 186.9245 0009797  54.6816  21.0564  1.00271612 35212
METEOR-M 1              
1 35865U 09049A   19038.88061243  .00000008  00000-0  22206-4 0  9996
2 35865  98.4091  43.0275 0002303 167.8501 192.2733 14.22183035487484
DMSP 5D-3 F18 (USA 210) 
1 35951U 09057A   19038.65248721  .00000038  00000-0  42708-4 0  9996
2 35951  98.6165  41.1808 0010881 349.8306  10.2646 14.13173323479976
GOES 15                 
1 36411U 10008A   19037.97517051  .00000050  00000-0  00000-0 0  9994
2 36411   0.0739 272.6533 0003288 345.5616 101.7213  1.00263489 32738
COMS 1                  
1 36744U 10032A   19038.54025830 -.00000348  00000-0  00000-0 0  9994
2 36744   0.0168 128.5880 0001176 280.9323  50.4634  1.00270393 24154
FENGYUN 3B              
1 37214U 10059A   19038.92024281 -.00000002  00000-0  22087-4 0  9997
2 37214  98.9820   9.7637 0016115 230.8769 129.0976 14.15906232427556
SUOMI NPP               
1 37849U 11061A   19038.54238366 -.00000002  00000-0  19718-4 0  9991
2 37849  98.7249 338.5849 0000618 105.2854 309.5025 14.19556304377270
FENGYUN 2F              
1 38049U 12002A   19038.83779434 -.00000359  00000-0  00000+0 0  9992
2 38049   0.9600  80.1063 0001126  29.5501  81.5945  1.00269978 25956
METEOSAT-10 (MSG-3)     
1 38552U 12035B   19038.77677417  .00000059  00000-0  00000+0 0  9994
2 38552   0.9890   8.5594 0000128  49.3252   8.7981  1.00265074 24282
METOP-B                 
1 38771U 12049A   19038.61991437  .00000002  00000-0  21139-4 0  9995
2 38771  98.7228  99.6609 0001024  41.6328 114.0854 14.21480588331588
FENGYUN 3C              
1 39260U 13052A   19038.81684253 -.00000012  00000-0  15402-4 0  9999
2 39260  98.6237 102.0492 0010659 193.9197 166.1672 14.15860171278487
METEOR-M 2              
1 40069U 14037A   19038.86102371 -.00000007  00000-0  16694-4 0  9991
2 40069  98.5714  88.2930 0004560 283.8842  76.1818 14.20658745237842
HIMAWARI-8              
1 40267U 14060A   19038.22845113 -.00000279  00000-0  00000+0 0  9995
2 40267   0.0138  89.1707 0000750 247.9957  22.8038  1.00272844 15928
FENGYUN 2G              
1 40367U 14090A   19038.85102775 -.00000305  00000-0  00000+0 0  9998
2 40367   0.9412 104.5161 0002503 294.4317 144.7087  1.00278302 15107
METEOSAT-11 (MSG-4)     
1 40732U 15034A   19038.73018694 -.00000002  00000-0  00000+0 0  9990
2 40732   0.9707 228.1866 0001403  67.7536 105.0120  1.00262179 13108
ELEKTRO-L 2             
1 41105U 15074A   19038.60160106 -.00000100  00000-0  00000-0 0  9991
2 41105   0.0836 163.8694 0001298 203.8589  62.3086  1.00272284 11588
HIMAWARI-9              
1 41836U 16064A   19038.81127292 -.00000278  00000-0  00000+0 0  9999
2 41836   0.0067 283.9320 0000809  71.8438 214.6359  1.00270193  8362
GOES 16                 
1 41866U 16071A   19037.82921830 -.00000252  00000-0  00000-0 0  9993
2 41866   0.0258 205.8294 0000421 167.1714 346.9731  1.00271814  8168
FENGYUN 4A              
1 41882U 16077A   19038.92595456 -.00000331  00000-0  00000+0 0  9997
2 41882   0.0625  79.1785 0004343  16.4418 120.0282  1.00266203  8040
CYGFM05                 
1 41884U 16078A   19038.68652363  .00000290  00000-0  17196-4 0  9996
2 41884  34.9558 258.7699 0016758 297.5836  62.3173 15.14303225118901
CYGFM04                 
1 41885U 16078B   19038.03253926  .00000275  00000-0  16148-4 0  9997
2 41885  34.9490 258.6955 0015079 297.1076  62.8097 15.14808531118841
CYGFM02                 
1 41886U 16078C   19038.68471225  .00000290  00000-0  16962-4 0  9994
2 41886  34.9581 256.0356 0015841 300.3214  59.5931 15.14808088118935
CYGFM01                 
1 41887U 16078D   19038.79261380  .00000269  00000-0  16120-4 0  9998
2 41887  34.9525 258.4984 0017204 299.8303  60.0698 15.14122917118918
CYGFM08                 
1 41888U 16078E   19038.78722592  .00000283  00000-0  16728-4 0  9995
2 41888  34.9495 256.3747 0016332 303.0440  56.8702 15.14528041118928
CYGFM06                 
1 41889U 16078F   19038.79266803  .00000293  00000-0  17121-4 0  9994
2 41889  34.9575 254.0341 0014780 301.0447  58.8813 15.14800824118953
CYGFM07                 
1 41890U 16078G   19038.77109639  .00000277  00000-0  16272-4 0  9995
2 41890  34.9513 253.4933 0014517 302.8959  57.0356 15.14801352118952
CYGFM03                 
1 41891U 16078H   19038.04097162  .00000273  00000-0  16080-4 0  9996
2 41891  34.9546 258.1459 0014043 295.9375  63.9889 15.14801295118843
FENGYUN 3D              
1 43010U 17072A   19038.85334589 -.00000004  00000-0  18594-4 0  9997
2 43010  98.7016 340.2715 0002551  70.2951 289.8513 14.19713948 63877
NOAA 20                 
1 43013U 17073A   19038.56693377  .00000001  00000-0  21116-4 0  9992
2 43013  98.7505 338.6739 0000782  68.0299 292.0960 14.19538585 63306
GOES 17                 
1 43226U 18022A   19038.00103653  .00000094  00000-0  00000-0 0  9992
2 43226   0.0214  81.8853 0003314 288.1175 349.9768  1.00273298  3474
FENGYUN 2H              
1 43491U 18050A   19038.60221172 -.00000130  00000-0  00000-0 0  9992
2 43491   1.8048 283.4747 0002042 255.4383 254.3314  1.00274222  2573
METOP-C                 
1 43689U 18087A   19038.56585648 -.00000044  00000-0  00000-0 0  9991
2 43689  98.7221  99.8918 0002394   1.8299 358.2886 14.21478184 13141
GEO-KOMPSAT-2A          
1 43823U 18100A   19038.86124774 -.00000346  00000-0  00000+0 0  9993
2 43823   0.0084 162.4714 0001424 249.0860 164.4111  1.00274124   727
